start=new Date('2023-01-29T00:00:00.000Z').valueOf();
sats=[{"CENTER_NAME":"EARTH","TLE_LINE2":"2 45418  52.9955 240.1516 0002179 164.0798 196.0264 15.17106572158009","OBJECT_NAME":"STARLINK-1299","EPOCH":"2023-01-28T21:10:45.355296","REV_AT_EPOCH":"15800","OBJECT_TYPE":"PAYLOAD","SITE":"AFETR","MEAN_MOTION_DOT":"0.00038075","EPHEMERIS_TYPE":"0","FILE":"3764201","ECCENTRICITY":"0.00021790","DECAY_DATE":null,"MEAN_MOTION":"15.17106572","BSTAR":"0.00190340000000","COUNTRY_CODE":"US","ELEMENT_SET_NO":"999","ARG_OF_PERICENTER":"164.0798","MEAN_ANOMALY":"196.0264","NORAD_CAT_ID":"45418","PERIAPSIS":"513.091","REF_FRAME":"TEME","MEAN_ELEMENT_THEORY":"SGP4","LAUNCH_DATE":"2020-03-18","GP_ID":"223908519","RA_OF_ASC_NODE":"240.1516","MEAN_MOTION_DDOT":"0.0000000000000","APOAPSIS":"516.095","TLE_LINE1":"1 45418U 20019BL  23028.88246939  .00038075  00000-0  19034-2 0  9990","OBJECT_ID":"2020-019BL","CLASSIFICATION_TYPE":"U","INCLINATION":"52.9955","TIME_SYSTEM":"UTC","SEMIMAJOR_AXIS":"6892.728","PERIOD":"94.918","RCS_SIZE":"LARGE"},{"EPHEMERIS_TYPE":"0","FILE":"3764201","ECCENTRICITY":"0.00011300","SITE":"AFETR","MEAN_MOTION_DOT":"0.00000795","EPOCH":"2023-01-28T20:41:59.040960","REV_AT_EPOCH":"15827","OBJECT_TYPE":"PAYLOAD","TLE_LINE2":"2 45419  53.0534 225.5419 0001130  90.4479 269.6639 15.06403388158273","CENTER_NAME":"EARTH","OBJECT_NAME":"STARLINK-1308","BSTAR":"0.00007225200000","COUNTRY_CODE":"US","ELEMENT_SET_NO":"999","DECAY_DATE":null,"MEAN_MOTION":"15.06403388","GP_ID":"223908768","RA_OF_ASC_NODE":"225.5419","LAUNCH_DATE":"2020-03-18","NORAD_CAT_ID":"45419","REF_FRAME":"TEME","PERIAPSIS":"546.421","MEAN_ELEMENT_THEORY":"SGP4","ARG_OF_PERICENTER":"90.4479","MEAN_ANOMALY":"269.6639","TIME_SYSTEM":"UTC","SEMIMAJOR_AXIS":"6925.338","PERIOD":"95.592","RCS_SIZE":"LARGE","OBJECT_ID":"2020-019BM","CLASSIFICATION_TYPE":"U","INCLINATION":"53.0534","MEAN_MOTION_DDOT":"0.0000000000000","TLE_LINE1":"1 45419U 20019BM  23028.86248890  .00000795  00000-0  72252-4 0  9998","APOAPSIS":"547.986"},{"MEAN_MOTION":"15.06413876","DECAY_DATE":null,"COUNTRY_CODE":"US","ELEMENT_SET_NO":"999","BSTAR":"-0.00008674600000","MEAN_MOTION_DOT":"-0.00001574","SITE":"AFETR","ECCENTRICITY":"0.00014760","EPHEMERIS_TYPE":"0","FILE":"3764201","OBJECT_NAME":"STARLINK-1329","TLE_LINE2":"2 45531  53.0549 166.2918 0001476  95.6347 264.4810 15.06413876153871","CENTER_NAME":"EARTH","OBJECT_TYPE":"PAYLOAD","REV_AT_EPOCH":"15387","EPOCH":"2023-01-28T16:45:46.971648","RCS_SIZE":"LARGE","PERIOD":"95.591","SEMIMAJOR_AXIS":"6925.306","TIME_SYSTEM":"UTC","TLE_LINE1":"1 45531U 20025A   23028.69846032 -.00001574  00000-0 -86746-4 0  9994","APOAPSIS":"548.193","MEAN_MOTION_DDOT":"0.0000000000000","INCLINATION":"53.0549","OBJECT_ID":"2020-025A","CLASSIFICATION_TYPE":"U","LAUNCH_DATE":"2020-04-22","RA_OF_ASC_NODE":"166.2918","GP_ID":"223909266","ARG_OF_PERICENTER":"95.6347","MEAN_ANOMALY":"264.4810","MEAN_ELEMENT_THEORY":"SGP4","PERIAPSIS":"546.149","REF_FRAME":"TEME","NORAD_CAT_ID":"45531"},{"RA_OF_ASC_NODE":"165.9340","GP_ID":"223908031","LAUNCH_DATE":"2020-04-22","REF_FRAME":"TEME","PERIAPSIS":"546.333","NORAD_CAT_ID":"45532","MEAN_ELEMENT_THEORY":"SGP4","MEAN_ANOMALY":"278.1949","ARG_OF_PERICENTER":"81.9185","SEMIMAJOR_AXIS":"6925.353","TIME_SYSTEM":"UTC","RCS_SIZE":"LARGE","PERIOD":"95.592","OBJECT_ID":"2020-025B","CLASSIFICATION_TYPE":"U","INCLINATION":"53.0533","MEAN_MOTION_DDOT":"0.0000000000000","APOAPSIS":"548.102","TLE_LINE1":"1 45532U 20025B   23028.77586588 -.00000816  00000-0 -35922-4 0  9999","EPHEMERIS_TYPE":"0","FILE":"3764201","ECCENTRICITY":"0.00012770","MEAN_MOTION_DOT":"-0.00000816","SITE":"AFETR","EPOCH":"2023-01-28T18:37:14.812032","OBJECT_TYPE":"PAYLOAD","REV_AT_EPOCH":"15388","TLE_LINE2":"2 45532  53.0533 165.9340 0001277  81.9185 278.1949 15.06398659153884","CENTER_NAME":"EARTH","OBJECT_NAME":"STARLINK-1338","BSTAR":"-0.00003592200000","ELEMENT_SET_NO":"999","COUNTRY_CODE":"US","MEAN_MOTION":"15.06398659","DECAY_DATE":null},{"MEAN_ANOMALY":"272.2455","ARG_OF_PERICENTER":"87.8669","REF_FRAME":"TEME","PERIAPSIS":"546.400","NORAD_CAT_ID":"45534","MEAN_ELEMENT_THEORY":"SGP4","LAUNCH_DATE":"2020-04-22","RA_OF_ASC_NODE":"165.8821","GP_ID":"223908281","MEAN_MOTION_DDOT":"0.0000000000000","TLE_LINE1":"1 45534U 20025D   23028.78692408 -.00000110  00000-0  11482-4 0  9992","APOAPSIS":"548.026","OBJECT_ID":"2020-025D","CLASSIFICATION_TYPE":"U","INCLINATION":"53.0545","SEMIMAJOR_AXIS":"6925.348","TIME_SYSTEM":"UTC","RCS_SIZE":"LARGE","PERIOD":"95.592","CENTER_NAME":"EARTH","TLE_LINE2":"2 45534  53.0545 165.8821 0001174  87.8669 272.2455 15.06400082153881","OBJECT_NAME":"STARLINK-1341","EPOCH":"2023-01-28T18:53:10.240512","OBJECT_TYPE":"PAYLOAD","REV_AT_EPOCH":"15388","MEAN_MOTION_DOT":"-0.00000110","SITE":"AFETR","EPHEMERIS_TYPE":"0","FILE":"3764201","ECCENTRICITY":"0.00011740","MEAN_MOTION":"15.06400082","DECAY_DATE":null,"BSTAR":"0.00001148200000","ELEMENT_SET_NO":"999","COUNTRY_CODE":"US"},{"TLE_LINE2":"2 45535  53.0536 165.8105 0001242  88.5241 271.5890 15.06403107153894","CENTER_NAME":"EARTH","OBJECT_NAME":"STARLINK-1350","EPOCH":"2023-01-28T19:19:42.376512","REV_AT_EPOCH":"15389","OBJECT_TYPE":"PAYLOAD","SITE":"AFETR","MEAN_MOTION_DOT":"0.00000373","FILE":"3764201","EPHEMERIS_TYPE":"0","ECCENTRICITY":"0.00012420","DECAY_DATE":null,"MEAN_MOTION":"15.06403107","BSTAR":"0.00004393200000","COUNTRY_CODE":"US","ELEMENT_SET_NO":"999","MEAN_ANOMALY":"271.5890","ARG_OF_PERICENTER":"88.5241","NORAD_CAT_ID":"45535","REF_FRAME":"TEME","PERIAPSIS":"546.344","MEAN_ELEMENT_THEORY":"SGP4","LAUNCH_DATE":"2020-04-22","GP_ID":"223909028","RA_OF_ASC_NODE":"165.8105","MEAN_MOTION_DDOT":"0.0000000000000","APOAPSIS":"548.064","TLE_LINE1":"1 45535U 20025E   23028.80535158  .00000373  00000-0  43932-4 0  9999","OBJECT_ID":"2020-025E","CLASSIFICATION_TYPE":"U","INCLINATION":"53.0536","TIME_SYSTEM":"UTC","SEMIMAJOR_AXIS":"6925.339","PERIOD":"95.592","RCS_SIZE":"LARGE"},{"MEAN_ANOMALY":"268.7161","ARG_OF_PERICENTER":"91.3953","PERIAPSIS":"546.449","REF_FRAME":"TEME","NORAD_CAT_ID":"45536","MEAN_ELEMENT_THEORY":"SGP4","LAUNCH_DATE":"2020-04-22","RA_OF_ASC_NODE":"166.3817","GP_ID":"223909766","MEAN_MOTION_DDOT":"0.0000000000000","APOAPSIS":"547.953","TLE_LINE1":"1 45536U 20025F   23028.67634554 -.00000595  00000-0 -21042-4 0  9991","CLASSIFICATION_TYPE":"U","OBJECT_ID":"2020-025F","INCLINATION":"53.0529","SEMIMAJOR_AXIS":"6925.336","TIME_SYSTEM":"UTC","RCS_SIZE":"LARGE","PERIOD":"95.592","CENTER_NAME":"EARTH","TLE_LINE2":"2 45536  53.0529 166.3817 0001086  91.3953 268.7161 15.06404105153866","OBJECT_NAME":"STARLINK-1352","EPOCH":"2023-01-28T16:13:56.254656","OBJECT_TYPE":"PAYLOAD","REV_AT_EPOCH":"15386","MEAN_MOTION_DOT":"-0.00000595","SITE":"AFETR","EPHEMERIS_TYPE":"0","FILE":"3764201","ECCENTRICITY":"0.00010860","MEAN_MOTION":"15.06404105","DECAY_DATE":null,"BSTAR":"-0.00002104200000","ELEMENT_SET_NO":"999","COUNTRY_CODE":"US"},{"PERIOD":"92.256","RCS_SIZE":"LARGE","TIME_SYSTEM":"UTC","SEMIMAJOR_AXIS":"6763.276","APOAPSIS":"391.633","TLE_LINE1":"1 45537U 20025G   23028.83752384  .00296019  00000-0  33527-2 0  9997","MEAN_MOTION_DDOT":"0.0000000000000","INCLINATION":"52.9652","CLASSIFICATION_TYPE":"U","OBJECT_ID":"2020-025G","LAUNCH_DATE":"2020-04-22","GP_ID":"223908531","RA_OF_ASC_NODE":"73.7038","MEAN_ANOMALY":"317.2942","ARG_OF_PERICENTER":"42.8817","MEAN_ELEMENT_THEORY":"SGP4","NORAD_CAT_ID":"45537","PERIAPSIS":"378.649","REF_FRAME":"TEME","DECAY_DATE":null,"MEAN_MOTION":"15.60871345","COUNTRY_CODE":"US","ELEMENT_SET_NO":"999","BSTAR":"0.00335270000000","SITE":"AFETR","MEAN_MOTION_DOT":"0.00296019","ECCENTRICITY":"0.00095990","EPHEMERIS_TYPE":"0","FILE":"3764201","OBJECT_NAME":"STARLINK-1353","CENTER_NAME":"EARTH","TLE_LINE2":"2 45537  52.9652  73.7038 0009599  42.8817 317.2942 15.60871345155138","REV_AT_EPOCH":"15513","OBJECT_TYPE":"PAYLOAD","EPOCH":"2023-01-28T20:06:02.059776"},{"LAUNCH_DATE":"2020-04-22","GP_ID":"223908780","RA_OF_ASC_NODE":"166.2671","MEAN_ANOMALY":"277.0673","ARG_OF_PERICENTER":"83.0461","NORAD_CAT_ID":"45538","PERIAPSIS":"546.329","REF_FRAME":"TEME","MEAN_ELEMENT_THEORY":"SGP4","TIME_SYSTEM":"UTC","SEMIMAJOR_AXIS":"6925.349","PERIOD":"95.592","RCS_SIZE":"LARGE","MEAN_MOTION_DDOT":"0.0000000000000","APOAPSIS":"548.098","TLE_LINE1":"1 45538U 20025H   23028.70215144  .00000177  00000-0  30804-4 0  9997","CLASSIFICATION_TYPE":"U","OBJECT_ID":"2020-025H","INCLINATION":"53.0543","SITE":"AFETR","MEAN_MOTION_DOT":"0.00000177","FILE":"3764201","EPHEMERIS_TYPE":"0","ECCENTRICITY":"0.00012770","TLE_LINE2":"2 45538  53.0543 166.2671 0001277  83.0461 277.0673 15.06399901153874","CENTER_NAME":"EARTH","OBJECT_NAME":"STARLINK-1362","EPOCH":"2023-01-28T16:51:05.884416","REV_AT_EPOCH":"15387","OBJECT_TYPE":"PAYLOAD","DECAY_DATE":null,"MEAN_MOTION":"15.06399901","BSTAR":"0.00003080400000","COUNTRY_CODE":"US","ELEMENT_SET_NO":"999"},{"ELEMENT_SET_NO":"999","COUNTRY_CODE":"US","BSTAR":"-0.00005554800000","DECAY_DATE":null,"MEAN_MOTION":"15.06405852","ECCENTRICITY":"0.00011320","FILE":"3764201","EPHEMERIS_TYPE":"0","SITE":"AFETR","MEAN_MOTION_DOT":"-0.00001109","REV_AT_EPOCH":"15387","OBJECT_TYPE":"PAYLOAD","EPOCH":"2023-01-28T17:54:47.041920","OBJECT_NAME":"STARLINK-1368","CENTER_NAME":"EARTH","TLE_LINE2":"2 45540  53.0528 166.0743 0001132 104.2492 255.8622 15.06405852153879","PERIOD":"95.592","RCS_SIZE":"LARGE","TIME_SYSTEM":"UTC","SEMIMAJOR_AXIS":"6925.331","INCLINATION":"53.0528","CLASSIFICATION_TYPE":"U","OBJECT_ID":"2020-025K","TLE_LINE1":"1 45540U 20025K   23028.74637780 -.00001109  00000-0 -55548-4 0  9998","APOAPSIS":"547.980","MEAN_MOTION_DDOT":"0.0000000000000","GP_ID":"223909528","RA_OF_ASC_NODE":"166.0743","LAUNCH_DATE":"2020-04-22","MEAN_ELEMENT_THEORY":"SGP4","NORAD_CAT_ID":"45540","PERIAPSIS":"546.412","REF_FRAME":"TEME","MEAN_ANOMALY":"255.8622","ARG_OF_PERICENTER":"104.2492"}];
